{
  "type": "FeatureCollection",
  "features": [
    {
      "type": "Feature",
      "properties": {
        "norad_id": 64903,
        "name": "CO3D 1",
        "group": "resource",
        "lat": 13.70419266478963,
        "lon": -103.91121508992804,
        "alt_km": 506.3775968598784,
        "timestamp": "2025-12-24T03:53:29.300525+00:00",
        "meta_object_name": "CO3D 1",
        "meta_object_id": "2025-156E",
        "meta_epoch": "2025-12-23T20:50:39.939648",
        "meta_mean_motion": 15.20203956,
        "meta_eccentricity": 8.72e-05,
        "meta_inclination": 97.4339,
        "meta_ra_of_asc_node": 73.9748,
        "meta_arg_of_pericenter": 74.861,
        "meta_mean_anomaly": 285.2722,
        "meta_ephemeris_type": 0,
        "meta_classification_type": "U",
        "meta_norad_cat_id": 64903,
        "meta_element_set_no": 999,
        "meta_rev_at_epoch": 2289,
        "meta_bstar": 0.00022648,
        "meta_mean_motion_dot": 4.839e-05,
        "meta_mean_motion_ddot": 0,
        "tle_line1": "1 64903U 25156E   25357.86851782  .00004839  00000+0  22648-3 0  9996",
        "tle_line2": "2 64903  97.4339  73.9748 0000872  74.8610 285.2722 15.20203956 22892"
      },
      "geometry": {
        "type": "Point",
        "coordinates": [
          -103.91121508992804,
          13.70419266478963
        ]
      }
    },
    {
      "type": "Feature",
      "properties": {
        "norad_id": 66514,
        "name": "SENTINEL-6B",
        "group": "resource",
        "lat": -22.76808152480468,
        "lon": -30.534433213291504,
        "alt_km": 1339.4916704871766,
        "timestamp": "2025-12-24T03:53:29.300536+00:00",
        "meta_object_name": "SENTINEL-6B",
        "meta_object_id": "2025-264A",
        "meta_epoch": "2025-12-23T02:27:52.423776",
        "meta_mean_motion": 12.8092954,
        "meta_eccentricity": 0.00078893,
        "meta_inclination": 66.0396,
        "meta_ra_of_asc_node": 140.9099,
        "meta_arg_of_pericenter": 269.9741,
        "meta_mean_anomaly": 90.037,
        "meta_ephemeris_type": 0,
        "meta_classification_type": "U",
        "meta_norad_cat_id": 66514,
        "meta_element_set_no": 999,
        "meta_rev_at_epoch": 461,
        "meta_bstar": -1.0381303e-05,
        "meta_mean_motion_dot": -6.3e-07,
        "meta_mean_motion_ddot": 0,
        "tle_line1": "1 66514U 25264A   25357.10269009 -.00000063  00000+0 -10381-4 0  9997",
        "tle_line2": "2 66514  66.0396 140.9099 0007889 269.9741  90.0370 12.80929540  4616"
      },
      "geometry": {
        "type": "Point",
        "coordinates": [
          -30.534433213291504,
          -22.76808152480468
        ]
      }
    }
  ]
}